{
  "type": "FeatureCollection",
  "features": [
    {
      "type": "Feature",
      "properties": {
        "norad_id": 41330,
        "name": "COSMOS 2514 (751)",
        "group": "glo-ops",
        "lat": -34.48336646070162,
        "lon": 157.72986513242435,
        "alt_km": 19104.187240998064,
        "timestamp": "2025-12-19T08:58:49.599412+00:00",
        "meta_object_name": "COSMOS 2514 (751)",
        "meta_object_id": "2016-008A",
        "meta_epoch": "2025-12-18T03:36:56.540160",
        "meta_mean_motion": 2.13102695,
        "meta_eccentricity": 0.00118514,
        "meta_inclination": 65.1307,
        "meta_ra_of_asc_node": 319.2187,
        "meta_arg_of_pericenter": 220.1582,
        "meta_mean_anomaly": 139.7456,
        "meta_ephemeris_type": 0,
        "meta_classification_type": "U",
        "meta_norad_cat_id": 41330,
        "meta_element_set_no": 999,
        "meta_rev_at_epoch": 7676,
        "meta_bstar": 0,
        "meta_mean_motion_dot": -6.5e-07,
        "meta_mean_motion_ddot": 0,
        "tle_line1": "1 41330U 16008A   25352.15065440 -.00000065  00000+0  00000+0 0  9998",
        "tle_line2": "2 41330  65.1307 319.2187 0011851 220.1582 139.7456  2.13102695 76762"
      },
      "geometry": {
        "type": "Point",
        "coordinates": [
          157.72986513242435,
          -34.48336646070162
        ]
      }
    },
    {
      "type": "Feature",
      "properties": {
        "norad_id": 42939,
        "name": "COSMOS 2522 (752)",
        "group": "glo-ops",
        "lat": -15.546508232780344,
        "lon": -169.7728091707044,
        "alt_km": 19140.169285411368,
        "timestamp": "2025-12-19T08:58:49.599422+00:00",
        "meta_object_name": "COSMOS 2522 (752)",
        "meta_object_id": "2017-055A",
        "meta_epoch": "2025-12-17T23:44:12.763104",
        "meta_mean_motion": 2.13102073,
        "meta_eccentricity": 0.00063915,
        "meta_inclination": 64.076,
        "meta_ra_of_asc_node": 198.0502,
        "meta_arg_of_pericenter": 224.057,
        "meta_mean_anomaly": 135.9735,
        "meta_ephemeris_type": 0,
        "meta_classification_type": "U",
        "meta_norad_cat_id": 42939,
        "meta_element_set_no": 999,
        "meta_rev_at_epoch": 6411,
        "meta_bstar": 0,
        "meta_mean_motion_dot": 1.1e-06,
        "meta_mean_motion_ddot": 0,
        "tle_line1": "1 42939U 17055A   25351.98903661  .00000110  00000+0  00000+0 0  9993",
        "tle_line2": "2 42939  64.0760 198.0502 0006391 224.0570 135.9735  2.13102073 64110"
      },
      "geometry": {
        "type": "Point",
        "coordinates": [
          -169.7728091707044,
          -15.546508232780344
        ]
      }
    },
    {
      "type": "Feature",
      "properties": {
        "norad_id": 43508,
        "name": "COSMOS 2527 (756)",
        "group": "glo-ops",
        "lat": 11.529634939580443,
        "lon": 85.25429947950528,
        "alt_km": 19147.625612032727,
        "timestamp": "2025-12-19T08:58:49.599433+00:00",
        "meta_object_name": "COSMOS 2527 (756)",
        "meta_object_id": "2018-053A",
        "meta_epoch": "2025-12-18T10:03:29.975616",
        "meta_mean_motion": 2.13102295,
        "meta_eccentricity": 0.00088359,
        "meta_inclination": 65.4756,
        "meta_ra_of_asc_node": 79.9416,
        "meta_arg_of_pericenter": 226.669,
        "meta_mean_anomaly": 133.2786,
        "meta_ephemeris_type": 0,
        "meta_classification_type": "U",
        "meta_norad_cat_id": 43508,
        "meta_element_set_no": 999,
        "meta_rev_at_epoch": 5842,
        "meta_bstar": 0,
        "meta_mean_motion_dot": -3.8e-07,
        "meta_mean_motion_ddot": 0,
        "tle_line1": "1 43508U 18053A   25352.41909694 -.00000038  00000+0  00000+0 0  9996",
        "tle_line2": "2 43508  65.4756  79.9416 0008835 226.6690 133.2786  2.13102295 58420"
      },
      "geometry": {
        "type": "Point",
        "coordinates": [
          85.25429947950528,
          11.529634939580443
        ]
      }
    },
    {
      "type": "Feature",
      "properties": {
        "norad_id": 43687,
        "name": "COSMOS 2529 (757)",
        "group": "glo-ops",
        "lat": -52.709806432047856,
        "lon": 159.40678928328438,
        "alt_km": 19122.96488356443,
        "timestamp": "2025-12-19T08:58:49.599448+00:00",
        "meta_object_name": "COSMOS 2529 (757)",
        "meta_object_id": "2018-086A",
        "meta_epoch": "2025-12-18T12:23:46.661856",
        "meta_mean_motion": 2.13102105,
        "meta_eccentricity": 0.00070461,
        "meta_inclination": 64.2922,
        "meta_ra_of_asc_node": 198.6932,
        "meta_arg_of_pericenter": 253.6593,
        "meta_mean_anomaly": 106.345,
        "meta_ephemeris_type": 0,
        "meta_classification_type": "U",
        "meta_norad_cat_id": 43687,
        "meta_element_set_no": 999,
        "meta_rev_at_epoch": 5543,
        "meta_bstar": 0,
        "meta_mean_motion_dot": 1.09e-06,
        "meta_mean_motion_ddot": 0,
        "tle_line1": "1 43687U 18086A   25352.51651229  .00000109  00000+0  00000+0 0  9997",
        "tle_line2": "2 43687  64.2922 198.6932 0007046 253.6593 106.3450  2.13102105 55434"
      },
      "geometry": {
        "type": "Point",
        "coordinates": [
          159.40678928328438,
          -52.709806432047856
        ]
      }
    },
    {
      "type": "Feature",
      "properties": {
        "norad_id": 44299,
        "name": "COSMOS 2534 (758)",
        "group": "glo-ops",
        "lat": 59.22758063361077,
        "lon": -107.55156474181857,
        "alt_km": 19142.28593576227,
        "timestamp": "2025-12-19T08:58:49.599459+00:00",
        "meta_object_name": "COSMOS 2534 (758)",
        "meta_object_id": "2019-030A",
        "meta_epoch": "2025-12-18T18:30:09.690336",
        "meta_mean_motion": 2.13102412,
        "meta_eccentricity": 0.0008748,
        "meta_inclination": 64.3658,
        "meta_ra_of_asc_node": 198.6898,
        "meta_arg_of_pericenter": 284.2192,
        "meta_mean_anomaly": 45.4012,
        "meta_ephemeris_type": 0,
        "meta_classification_type": "U",
        "meta_norad_cat_id": 44299,
        "meta_element_set_no": 999,
        "meta_rev_at_epoch": 5107,
        "meta_bstar": 0,
        "meta_mean_motion_dot": 1.08e-06,
        "meta_mean_motion_ddot": 0,
        "tle_line1": "1 44299U 19030A   25352.77094549  .00000108  00000+0  00000+0 0  9990",
        "tle_line2": "2 44299  64.3658 198.6898 0008748 284.2192  45.4012  2.13102412 51071"
      },
      "geometry": {
        "type": "Point",
        "coordinates": [
          -107.55156474181857,
          59.22758063361077
        ]
      }
    },
    {
      "type": "Feature",
      "properties": {
        "norad_id": 44850,
        "name": "COSMOS 2544 (759)",
        "group": "glo-ops",
        "lat": 48.29264606029273,
        "lon": 110.51908489250577,
        "alt_km": 19158.68134624871,
        "timestamp": "2025-12-19T08:58:49.599470+00:00",
        "meta_object_name": "COSMOS 2544 (759)",
        "meta_object_id": "2019-088A",
        "meta_epoch": "2025-12-16T11:40:43.010688",
        "meta_mean_motion": 2.13101965,
        "meta_eccentricity": 0.00138869,
        "meta_inclination": 65.4623,
        "meta_ra_of_asc_node": 79.8328,
        "meta_arg_of_pericenter": 249.7945,
        "meta_mean_anomaly": 110.0707,
        "meta_ephemeris_type": 0,
        "meta_classification_type": "U",
        "meta_norad_cat_id": 44850,
        "meta_element_set_no": 999,
        "meta_rev_at_epoch": 4682,
        "meta_bstar": 0,
        "meta_mean_motion_dot": -5.3e-07,
        "meta_mean_motion_ddot": 0,
        "tle_line1": "1 44850U 19088A   25350.48660892 -.00000053  00000+0  00000+0 0  9992",
        "tle_line2": "2 44850  65.4623  79.8328 0013886 249.7945 110.0707  2.13101965 46826"
      },
      "geometry": {
        "type": "Point",
        "coordinates": [
          110.51908489250577,
          48.29264606029273
        ]
      }
    },
    {
      "type": "Feature",
      "properties": {
        "norad_id": 45358,
        "name": "COSMOS 2545 (760)",
        "group": "glo-ops",
        "lat": -64.01141512093662,
        "lon": -142.71283291603064,
        "alt_km": 19107.929227261455,
        "timestamp": "2025-12-19T08:58:49.599481+00:00",
        "meta_object_name": "COSMOS 2545 (760)",
        "meta_object_id": "2020-018A",
        "meta_epoch": "2025-12-18T13:25:32.377728",
        "meta_mean_motion": 2.13102609,
        "meta_eccentricity": 0.00115817,
        "meta_inclination": 64.4659,
        "meta_ra_of_asc_node": 318.7651,
        "meta_arg_of_pericenter": 249.5623,
        "meta_mean_anomaly": 110.3045,
        "meta_ephemeris_type": 0,
        "meta_classification_type": "U",
        "meta_norad_cat_id": 45358,
        "meta_element_set_no": 999,
        "meta_rev_at_epoch": 4481,
        "meta_bstar": 0,
        "meta_mean_motion_dot": -6.4e-07,
        "meta_mean_motion_ddot": 0,
        "tle_line1": "1 45358U 20018A   25352.55940252 -.00000064  00000+0  00000+0 0  9994",
        "tle_line2": "2 45358  64.4659 318.7651 0011581 249.5623 110.3045  2.13102609 44814"
      },
      "geometry": {
        "type": "Point",
        "coordinates": [
          -142.71283291603064,
          -64.01141512093662
        ]
      }
    }
  ]
}